[{"OBJECT_NAME":"OBJECT A","OBJECT_ID":"2025-013A","EPOCH":"2026-03-09T23:29:31.895232","MEAN_MOTION":15.29260221,"ECCENTRICITY":0.0010321,"INCLINATION":97.6364,"RA_OF_ASC_NODE":244.5149,"ARG_OF_PERICENTER":282.3775,"MEAN_ANOMALY":77.6309,"EPHEMERIS_TYPE":0,"CLASSIFICATION_TYPE":"U","NORAD_CAT_ID":62729,"ELEMENT_SET_NO":999,"REV_AT_EPOCH":6276,"BSTAR":0.0013206527,"MEAN_MOTION_DOT":0.00037616,"MEAN_MOTION_DDOT":0},{"OBJECT_NAME":"STARLINK-34734","OBJECT_ID":"2025-212W","EPOCH":"2026-03-09T22:14:46.186944","MEAN_MOTION":15.30224902,"ECCENTRICITY":0.0001083,"INCLINATION":53.1592,"RA_OF_ASC_NODE":344.3019,"ARG_OF_PERICENTER":91.757,"MEAN_ANOMALY":268.3555,"EPHEMERIS_TYPE":0,"CLASSIFICATION_TYPE":"U","NORAD_CAT_ID":65696,"ELEMENT_SET_NO":999,"REV_AT_EPOCH":2728,"BSTAR":0.0016197894,"MEAN_MOTION_DOT":0.00047961,"MEAN_MOTION_DDOT":0}]
